{"fetched_at":"2026-07-07T07:58:12.386Z","source":"https://celestrak.org/NORAD/elements/gp.php?GROUP=planet&FORMAT=JSON","constellation":"superdove","records":[{"OBJECT_NAME":"FLOCK 4Q-16","OBJECT_ID":"2023-174R","EPOCH":"2026-07-06T05:12:17.546400","CLASSIFICATION_TYPE":"U","MEAN_MOTION":15.50111928,"ECCENTRICITY":0.00070296,"INCLINATION":97.3825,"RA_OF_ASC_NODE":275.777,"ARG_OF_PERICENTER":102.9489,"MEAN_ANOMALY":257.2548,"EPHEMERIS_TYPE":0,"NORAD_CAT_ID":58271,"ELEMENT_SET_NO":999,"REV_AT_EPOCH":14852,"BSTAR":0.00037119376,"MEAN_MOTION_DOT":0.00020833,"MEAN_MOTION_DDOT":0},{"OBJECT_NAME":"FLOCK 4Q-11","OBJECT_ID":"2023-174T","EPOCH":"2026-07-06T04:37:28.728768","CLASSIFICATION_TYPE":"U","MEAN_MOTION":15.50547752,"ECCENTRICITY":0.00068258,"INCLINATION":97.3859,"RA_OF_ASC_NODE":276.3771,"ARG_OF_PERICENTER":98.6311,"MEAN_ANOMALY":261.5714,"EPHEMERIS_TYPE":0,"NORAD_CAT_ID":58273,"ELEMENT_SET_NO":999,"REV_AT_EPOCH":14853,"BSTAR":0.00043132384,"MEAN_MOTION_DOT":0.0002461,"MEAN_MOTION_DDOT":0},{"OBJECT_NAME":"FLOCK 4Q-28","OBJECT_ID":"2023-174AA","EPOCH":"2026-07-06T17:30:21.514752","CLASSIFICATION_TYPE":"U","MEAN_MOTION":15.56386882,"ECCENTRICITY":0.0005513,"INCLINATION":97.3877,"RA_OF_ASC_NODE":279.5846,"ARG_OF_PERICENTER":88.3721,"MEAN_ANOMALY":271.8165,"EPHEMERIS_TYPE":0,"NORAD_CAT_ID":58280,"ELEMENT_SET_NO":999,"REV_AT_EPOCH":14878,"BSTAR":0.00037372,"MEAN_MOTION_DOT":0.00026322,"MEAN_MOTION_DDOT":0},{"OBJECT_NAME":"FLOCK 4Q-27","OBJECT_ID":"2023-174AC","EPOCH":"2026-07-06T17:34:27.473088","CLASSIFICATION_TYPE":"U","MEAN_MOTION":15.5658846,"ECCENTRICITY":0.0004666,"INCLINATION":97.3804,"RA_OF_ASC_NODE":279.0003,"ARG_OF_PERICENTER":92.646,"MEAN_ANOMALY":267.5329,"EPHEMERIS_TYPE":0,"NORAD_CAT_ID":58282,"ELEMENT_SET_NO":999,"REV_AT_EPOCH":14879,"BSTAR":0.0003442,"MEAN_MOTION_DOT":0.00024407,"MEAN_MOTION_DDOT":0},{"OBJECT_NAME":"FLOCK 4Q-7","OBJECT_ID":"2023-174BQ","EPOCH":"2026-07-06T11:53:24.427104","CLASSIFICATION_TYPE":"U","MEAN_MOTION":15.56915132,"ECCENTRICITY":0.0005373,"INCLINATION":97.3906,"RA_OF_ASC_NODE":279.6571,"ARG_OF_PERICENTER":75.1511,"MEAN_ANOMALY":285.0338,"EPHEMERIS_TYPE":0,"NORAD_CAT_ID":58318,"ELEMENT_SET_NO":999,"REV_AT_EPOCH":14875,"BSTAR":0.00045307,"MEAN_MOTION_DOT":0.00032589,"MEAN_MOTION_DDOT":0},{"OBJECT_NAME":"FLOCK 4Q-2","OBJECT_ID":"2023-174BS","EPOCH":"2026-07-06T19:44:39.187392","CLASSIFICATION_TYPE":"U","MEAN_MOTION":15.50553785,"ECCENTRICITY":0.0005575,"INCLINATION":97.3833,"RA_OF_ASC_NODE":276.7395,"ARG_OF_PERICENTER":77.4681,"MEAN_ANOMALY":282.7194,"EPHEMERIS_TYPE":0,"NORAD_CAT_ID":58320,"ELEMENT_SET_NO":999,"REV_AT_EPOCH":14864,"BSTAR":0.00032914,"MEAN_MOTION_DOT":0.00018742,"MEAN_MOTION_DDOT":0},{"OBJECT_NAME":"FLOCK 4Q-9","OBJECT_ID":"2023-174BU","EPOCH":"2026-07-06T17:06:42.354144","CLASSIFICATION_TYPE":"U","MEAN_MOTION":15.51010051,"ECCENTRICITY":0.0006448,"INCLINATION":97.3854,"RA_OF_ASC_NODE":276.7292,"ARG_OF_PERICENTER":78.1277,"MEAN_ANOMALY":282.0698,"EPHEMERIS_TYPE":0,"NORAD_CAT_ID":58322,"ELEMENT_SET_NO":999,"REV_AT_EPOCH":14861,"BSTAR":0.00040146,"MEAN_MOTION_DOT":0.00023272,"MEAN_MOTION_DDOT":0},{"OBJECT_NAME":"FLOCK 4Q-4","OBJECT_ID":"2023-174BZ","EPOCH":"2026-07-06T17:15:44.193600","CLASSIFICATION_TYPE":"U","MEAN_MOTION":15.49581554,"ECCENTRICITY":0.0006368,"INCLINATION":97.3817,"RA_OF_ASC_NODE":275.8741,"ARG_OF_PERICENTER":98.4566,"MEAN_ANOMALY":261.7407,"EPHEMERIS_TYPE":0,"NORAD_CAT_ID":58327,"ELEMENT_SET_NO":999,"REV_AT_EPOCH":14858,"BSTAR":0.00034411,"MEAN_MOTION_DOT":0.00018941,"MEAN_MOTION_DDOT":0},{"OBJECT_NAME":"FLOCK 4Q-13","OBJECT_ID":"2023-174CA","EPOCH":"2026-07-06T17:17:52.279872","CLASSIFICATION_TYPE":"U","MEAN_MOTION":15.52593943,"ECCENTRICITY":0.000647,"INCLINATION":97.4002,"RA_OF_ASC_NODE":279.1191,"ARG_OF_PERICENTER":81.2459,"MEAN_ANOMALY":278.9527,"EPHEMERIS_TYPE":0,"NORAD_CAT_ID":58328,"ELEMENT_SET_NO":999,"REV_AT_EPOCH":14870,"BSTAR":0.00030979,"MEAN_MOTION_DOT":0.00018971,"MEAN_MOTION_DDOT":0},{"OBJECT_NAME":"FLOCK 4BE-18","OBJECT_ID":"2024-149N","EPOCH":"2026-07-06T16:14:03.628032","CLASSIFICATION_TYPE":"U","MEAN_MOTION":15.42564534,"ECCENTRICITY":0.0004418,"INCLINATION":97.3719,"RA_OF_ASC_NODE":271.6184,"ARG_OF_PERICENTER":172.5556,"MEAN_ANOMALY":187.5758,"EPHEMERIS_TYPE":0,"NORAD_CAT_ID":60480,"ELEMENT_SET_NO":999,"REV_AT_EPOCH":10531,"BSTAR":0.00034412,"MEAN_MOTION_DOT":0.00014874,"MEAN_MOTION_DDOT":0},{"OBJECT_NAME":"FLOCK 4BE-7","OBJECT_ID":"2024-149P","EPOCH":"2026-07-06T04:23:28.595040","CLASSIFICATION_TYPE":"U","MEAN_MOTION":15.41170213,"ECCENTRICITY":0.00036246,"INCLINATION":97.375,"RA_OF_ASC_NODE":270.4237,"ARG_OF_PERICENTER":173.3587,"MEAN_ANOMALY":186.7708,"EPHEMERIS_TYPE":0,"NORAD_CAT_ID":60481,"ELEMENT_SET_NO":999,"REV_AT_EPOCH":10517,"BSTAR":0.00060998151,"MEAN_MOTION_DOT":0.00025264,"MEAN_MOTION_DDOT":0},{"OBJECT_NAME":"FLOCK 4BE-36","OBJECT_ID":"2024-149U","EPOCH":"2026-07-06T16:51:10.632960","CLASSIFICATION_TYPE":"U","MEAN_MOTION":15.43347183,"ECCENTRICITY":0.0004157,"INCLINATION":97.3737,"RA_OF_ASC_NODE":272.3719,"ARG_OF_PERICENTER":176.4436,"MEAN_ANOMALY":183.6842,"EPHEMERIS_TYPE":0,"NORAD_CAT_ID":60486,"ELEMENT_SET_NO":999,"REV_AT_EPOCH":10536,"BSTAR":0.00032196,"MEAN_MOTION_DOT":0.0001428,"MEAN_MOTION_DDOT":0},{"OBJECT_NAME":"FLOCK 4BE-25","OBJECT_ID":"2024-149V","EPOCH":"2026-07-06T11:06:12.216960","CLASSIFICATION_TYPE":"U","MEAN_MOTION":15.39373061,"ECCENTRICITY":0.0003069,"INCLINATION":97.379,"RA_OF_ASC_NODE":270.7498,"ARG_OF_PERICENTER":162.044,"MEAN_ANOMALY":198.0915,"EPHEMERIS_TYPE":0,"NORAD_CAT_ID":60487,"ELEMENT_SET_NO":999,"REV_AT_EPOCH":10520,"BSTAR":0.00031355,"MEAN_MOTION_DOT":0.00012179,"MEAN_MOTION_DDOT":0},{"OBJECT_NAME":"FLOCK 4BE-31","OBJECT_ID":"2024-149W","EPOCH":"2026-07-06T17:09:14.387040","CLASSIFICATION_TYPE":"U","MEAN_MOTION":15.44906999,"ECCENTRICITY":0.000322,"INCLINATION":97.379,"RA_OF_ASC_NODE":273.3002,"ARG_OF_PERICENTER":173.1498,"MEAN_ANOMALY":186.9795,"EPHEMERIS_TYPE":0,"NORAD_CAT_ID":60488,"ELEMENT_SET_NO":999,"REV_AT_EPOCH":10539,"BSTAR":0.00036473,"MEAN_MOTION_DOT":0.0001707,"MEAN_MOTION_DDOT":0},{"OBJECT_NAME":"FLOCK 4BE-20","OBJECT_ID":"2024-149X","EPOCH":"2026-07-06T16:41:52.626336","CLASSIFICATION_TYPE":"U","MEAN_MOTION":15.38648477,"ECCENTRICITY":0.0004322,"INCLINATION":97.3688,"RA_OF_ASC_NODE":269.8143,"ARG_OF_PERICENTER":177.074,"MEAN_ANOMALY":183.0532,"EPHEMERIS_TYPE":0,"NORAD_CAT_ID":60489,"ELEMENT_SET_NO":999,"REV_AT_EPOCH":10521,"BSTAR":0.00032252,"MEAN_MOTION_DOT":0.00012238,"MEAN_MOTION_DDOT":0},{"OBJECT_NAME":"FLOCK 4BE-23","OBJECT_ID":"2024-149Y","EPOCH":"2026-07-06T16:35:18.288960","CLASSIFICATION_TYPE":"U","MEAN_MOTION":15.38208639,"ECCENTRICITY":0.0003826,"INCLINATION":97.3773,"RA_OF_ASC_NODE":270.1963,"ARG_OF_PERICENTER":180.2589,"MEAN_ANOMALY":179.8655,"EPHEMERIS_TYPE":0,"NORAD_CAT_ID":60490,"ELEMENT_SET_NO":999,"REV_AT_EPOCH":10519,"BSTAR":0.00032872,"MEAN_MOTION_DOT":0.00012296,"MEAN_MOTION_DDOT":0}]}
