FLOCK 4Q-16             
1 58271U 23174R   26187.21686975  .00020833  00000+0  37119-3 0  9997
2 58271  97.3825 275.7770 0007029 102.9489 257.2548 15.50111928148521
FLOCK 4Q-11             
1 58273U 23174T   26187.19269362  .00024610  00000+0  43132-3 0  9992
2 58273  97.3859 276.3771 0006825  98.6311 261.5714 15.50547752148538
FLOCK 4Q-28             
1 58280U 23174AA  26187.72941568  .00026322  00000+0  37372-3 0  9995
2 58280  97.3877 279.5846 0005513  88.3721 271.8165 15.56386882148780
FLOCK 4Q-27             
1 58282U 23174AC  26187.73226242  .00024407  00000+0  34420-3 0  9996
2 58282  97.3804 279.0003 0004666  92.6460 267.5329 15.56588460148799
FLOCK 4Q-7              
1 58318U 23174BQ  26187.49542161  .00032589  00000+0  45307-3 0  9996
2 58318  97.3906 279.6571 0005373  75.1511 285.0338 15.56915132148758
FLOCK 4Q-2              
1 58320U 23174BS  26187.82267578  .00018742  00000+0  32914-3 0  9997
2 58320  97.3833 276.7395 0005575  77.4681 282.7194 15.50553785148647
FLOCK 4Q-9              
1 58322U 23174BU  26187.71299021  .00023272  00000+0  40146-3 0  9995
2 58322  97.3854 276.7292 0006448  78.1277 282.0698 15.51010051148611
FLOCK 4Q-4              
1 58327U 23174BZ  26187.71926150  .00018941  00000+0  34411-3 0  9995
2 58327  97.3817 275.8741 0006368  98.4566 261.7407 15.49581554148587
FLOCK 4Q-13             
1 58328U 23174CA  26187.72074398  .00018971  00000+0  30979-3 0  9993
2 58328  97.4002 279.1191 0006470  81.2459 278.9527 15.52593943148702
FLOCK 4BE-18            
1 60480U 24149N   26187.67643088  .00014874  00000+0  34412-3 0  9994
2 60480  97.3719 271.6184 0004418 172.5556 187.5758 15.42564534105313
FLOCK 4BE-7             
1 60481U 24149P   26187.18296985  .00025264  00000+0  60998-3 0  9994
2 60481  97.3750 270.4237 0003624 173.3587 186.7708 15.41170213105172
FLOCK 4BE-36            
1 60486U 24149U   26187.70220640  .00014280  00000+0  32196-3 0  9997
2 60486  97.3737 272.3719 0004157 176.4436 183.6842 15.43347183105367
FLOCK 4BE-25            
1 60487U 24149V   26187.46264140  .00012179  00000+0  31355-3 0  9995
2 60487  97.3790 270.7498 0003069 162.0440 198.0915 15.39373061105203
FLOCK 4BE-31            
1 60488U 24149W   26187.71474985  .00017070  00000+0  36473-3 0  9995
2 60488  97.3790 273.3002 0003220 173.1498 186.9795 15.44906999105399
FLOCK 4BE-20            
1 60489U 24149X   26187.69574799  .00012238  00000+0  32252-3 0  9999
2 60489  97.3688 269.8143 0004322 177.0740 183.0532 15.38648477105214
FLOCK 4BE-23            
1 60490U 24149Y   26187.69118390  .00012296  00000+0  32872-3 0  9994
2 60490  97.3773 270.1963 0003826 180.2589 179.8655 15.38208639105199
